[{"OBJECT_NAME":"KUIPER-00046","OBJECT_ID":"2025-134G","EPOCH":"2026-03-09T16:29:16.822464","MEAN_MOTION":14.79921021,"ECCENTRICITY":7.337e-5,"INCLINATION":51.8972,"RA_OF_ASC_NODE":243.0618,"ARG_OF_PERICENTER":109.9358,"MEAN_ANOMALY":250.1684,"EPHEMERIS_TYPE":0,"CLASSIFICATION_TYPE":"U","NORAD_CAT_ID":64506,"ELEMENT_SET_NO":999,"REV_AT_EPOCH":3993,"BSTAR":0.00014933614,"MEAN_MOTION_DOT":9.17e-6,"MEAN_MOTION_DDOT":0},{"OBJECT_NAME":"SL-14 R\/B","OBJECT_ID":"1992-094B","EPOCH":"2026-03-09T19:56:29.702112","MEAN_MOTION":14.80051902,"ECCENTRICITY":0.00233094,"INCLINATION":82.5276,"RA_OF_ASC_NODE":352.7335,"ARG_OF_PERICENTER":339.5847,"MEAN_ANOMALY":20.4431,"EPHEMERIS_TYPE":0,"CLASSIFICATION_TYPE":"U","NORAD_CAT_ID":22287,"ELEMENT_SET_NO":999,"REV_AT_EPOCH":76854,"BSTAR":7.242105e-5,"MEAN_MOTION_DOT":5.74e-6,"MEAN_MOTION_DDOT":0}]
